STARLINK-2022           
1 47643U 21012Z   24010.35690673  .00008339  00000+0  57789-3 0  9997
2 47643  53.0558 355.0729 0001559  98.4701 261.6464 15.06412084161291
